STARLINK-1357
1 45565U 20025AL  26061.06447274  .00099666  00000+0  15212-2 0  9991
2 45565  53.0529  74.8555 0003452  43.8273 316.3010 15.53662940324875
